ORBCOMM FM103           
1 40091U 14040F   24303.49495234  .00003650  00000+0  83513-3 0  9991
2 40091  47.0064  26.6632 0002946 290.5483  69.5086 14.57316069547501
ORBCOMM FM114           
1 41179U 15081A   24303.18173451  .00003408  00000+0  78222-3 0  9997
2 41179  47.0017 297.3353 0002538 351.8660   8.2184 14.57316485470819
ORBCOMM FM119           
1 41180U 15081B   24303.15803323  .00003652  00000+0  83583-3 0  9991
2 41180  46.9993 206.6729 0000839  68.8185 291.2790 14.57292883472017
ORBCOMM FM105           
1 41181U 15081C   24303.07776664  .00001768  00000+0  54951-3 0  9993
2 41181  47.0007 189.8417 0001804 350.4283   9.6562 14.44775145467435
ORBCOMM FM110           
1 41182U 15081D   24303.15813504  .00004028  00000+0  91768-3 0  9997
2 41182  47.0008 296.8311 0000859 199.7997 160.2855 14.57314083470813
ORBCOMM FM118           
1 41183U 15081E   24303.41030101  .00004038  00000+0  91965-3 0  9991
2 41183  47.0033 295.9896 0001258 198.5660 161.5180 14.57328958470853
ORBCOMM FM112           
1 41184U 15081F   24302.86142778  .00005842  00000+0  13142-2 0  9998
2 41184  46.9979 207.2674 0001350  43.3523 316.7469 14.57302327471913
ORBCOMM FM113           
1 41185U 15081G   24303.18151065  .00005011  00000+0  11331-2 0  9990
2 41185  46.9995 206.0525 0001103  75.9029 284.1979 14.57283439472010
